*******************************************************************************
 Revised: June 21, 2016                 Mars                            499 / 4
 
 PHYSICAL DATA (updated 2019-Oct-29):
  Vol. mean radius (km) = 3389.92+-0.04   Density (g/cm^3)      =  3.933(5+-4)
  Mass x10^23 (kg)      =    6.4171       Flattening, f         =  1/169.779
  Volume (x10^10 km^3)  =   16.318        Equatorial radius (km)=  3396.19
  Sidereal rot. period  =   24.622962 hr  Sid. rot. rate, rad/s =  0.0000708822 
  Mean solar day (sol)  =   88775.24415 s Polar gravity m/s^2   =  3.758
  Core radius (km)      = ~1700           Equ. gravity  m/s^2   =  3.71
  Geometric Albedo      =    0.150                                              

  GM (km^3/s^2)         = 42828.375214    Mass ratio (Sun/Mars) = 3098703.59
  GM 1-sigma (km^3/s^2) = +- 0.00028      Mass of atmosphere, kg= ~ 2.5 x 10^16
  Mean temperature (K)  =  210            Atmos. pressure (bar) =    0.0056 
  Obliquity to orbit    =   25.19 deg     Max. angular diam.    =  17.9"
  Mean sidereal orb per =    1.88081578 y Visual mag. V(1,0)    =  -1.52
  Mean sidereal orb per =  686.98 d       Orbital speed,  km/s  =  24.13
  Hill's sphere rad. Rp =  319.8          Escape speed, km/s    =   5.027
                                 Perihelion  Aphelion    Mean
  Solar Constant (W/m^2)         717         493         589
  Maximum Planetary IR (W/m^2)   470         315         390
  Minimum Planetary IR (W/m^2)    30          30          30
*******************************************************************************


*******************************************************************************
Ephemeris / WWW_USER Wed Nov 23 04:24:42 2022 Pasadena, USA      / Horizons
*******************************************************************************
Target body name: Mars (499)                      {source: mar097}
Center body name: Sun (10)                        {source: mar097}
Center-site name: BODY CENTER
*******************************************************************************
Start time      : A.D. 2003-Sep-01 00:00:00.0000 TDB
Stop  time      : A.D. 2004-Mar-01 00:00:00.0000 TDB
Step-size       : 1440 minutes
*******************************************************************************
Center geodetic : 0.00000000,0.00000000,0.0000000 {E-lon(deg),Lat(deg),Alt(km)}
Center cylindric: 0.00000000,0.00000000,0.0000000 {E-lon(deg),Dxy(km),Dz(km)}
Center radii    : 696000.0 x 696000.0 x 696000.0 k{Equator, meridian, pole}    
Keplerian GM    : 1.3271248286965302E+11 km^3/s^2
Output units    : KM-S, deg, Julian Day Number (Tp)
Output type     : GEOMETRIC osculating elements
Output format   : 10
Reference frame : Ecliptic of J2000.0
*******************************************************************************
JDTDB
   EC    QR   IN
   OM    W    Tp
   N     MA   TA
   A     AD   PR
*******************************************************************************
$$SOE
2452901.500000000 = A.D. 2003-Sep-19 00:00:00.0000 TDB 
 EC= 9.355316037865542E-02 QR= 2.066167568018045E+08 IN= 1.849329053318726E+00
 OM= 4.954163117134429E+01 W = 2.865167933316596E+02 Tp=  2452881.965196358506
 N = 6.065180329634042E-06 MA= 1.023685402664878E+01 TA= 1.238781528238718E+01
 A = 2.279413946526811E+08 AD= 2.492660325035578E+08 PR= 5.935520140119585E+07
2452902.500000000 = A.D. 2003-Sep-20 00:00:00.0000 TDB 
 EC= 9.355317025091933E-02 QR= 2.066167634375138E+08 IN= 1.849329715854691E+00
 OM= 4.954159444707309E+01 W = 2.865169282989156E+02 Tp=  2452881.965350878891
 N = 6.065179938364476E-06 MA= 1.076080393943844E+01 TA= 1.302004517962862E+01
 A = 2.279414044558011E+08 AD= 2.492660454740883E+08 PR= 5.935520523024695E+07
2452903.500000000 = A.D. 2003-Sep-21 00:00:00.0000 TDB 
 EC= 9.355317474750528E-02 QR= 2.066167701528208E+08 IN= 1.849330369351727E+00
 OM= 4.954155915850247E+01 W = 2.865170580304029E+02 Tp=  2452881.965499346144
 N = 6.065179597544366E-06 MA= 1.128475705049817E+01 TA= 1.365200941246339E+01
 A = 2.279414129949287E+08 AD= 2.492660558370366E+08 PR= 5.935520856558884E+07
2452904.500000000 = A.D. 2003-Sep-22 00:00:00.0000 TDB 
 EC= 9.355317398758110E-02 QR= 2.066167768618133E+08 IN= 1.849331001129288E+00
 OM= 4.954152591469222E+01 W = 2.865171810595280E+02 Tp=  2452881.965640408918
 N = 6.065179309760541E-06 MA= 1.180871408607551E+01 TA= 1.428369618506008E+01
 A = 2.279414202052515E+08 AD= 2.492660635486897E+08 PR= 5.935521138190606E+07
2452905.500000000 = A.D. 2003-Sep-23 00:00:00.0000 TDB 
 EC= 9.355316891660935E-02 QR= 2.066167834843537E+08 IN= 1.849331600402819E+00
 OM= 4.954149516806808E+01 W = 2.865172963373348E+02 Tp=  2452881.965773136355
 N = 6.065179069052252E-06 MA= 1.233267553542639E+01 TA= 1.491509350595857E+01
 A = 2.279414262361137E+08 AD= 2.492660689878737E+08 PR= 5.935521373753171E+07
2452906.500000000 = A.D. 2003-Sep-24 00:00:00.0000 TDB 
 EC= 9.355316111792263E-02 QR= 2.066167899830571E+08 IN= 1.849332166955725E+00
 OM= 4.954146680288229E+01 W = 2.865174040473491E+02 Tp=  2452881.965897652786
 N = 6.065178861174143E-06 MA= 1.285664131600362E+01 TA= 1.554618878739928E+01
 A = 2.279414314444275E+08 AD= 2.492660729057980E+08 PR= 5.935521577187394E+07
2452907.500000000 = A.D. 2003-Sep-25 00:00:00.0000 TDB 
 EC= 9.355315198526540E-02 QR= 2.066167963605076E+08 IN= 1.849332710100122E+00
 OM= 4.954144025213005E+01 W = 2.865175052847982E+02 Tp=  2452881.966014803853
 N = 6.065178672023777E-06 MA= 1.338061096132103E+01 TA= 1.617696905199954E+01
 A = 2.279414361835245E+08 AD= 2.492660760065414E+08 PR= 5.935521762294239E+07
2452908.500000000 = A.D. 2003-Sep-26 00:00:00.0000 TDB 
 EC= 9.355314187426488E-02 QR= 2.066168026145105E+08 IN= 1.849333238407031E+00
 OM= 4.954141503441033E+01 W = 2.865176008655100E+02 Tp=  2452881.966125122271
 N = 6.065178498128449E-06 MA= 1.390458418972076E+01 TA= 1.680742158995969E+01
 A = 2.279414405404120E+08 AD= 2.492660784663135E+08 PR= 5.935521932472166E+07
2452909.500000000 = A.D. 2003-Sep-27 00:00:00.0000 TDB 
 EC= 9.355313010005255E-02 QR= 2.066168087085039E+08 IN= 1.849333753208950E+00
 OM= 4.954139104334455E+01 W = 2.865176907267385E+02 Tp=  2452881.966228334699
 N = 6.065178347971904E-06 MA= 1.442856116818824E+01 TA= 1.743753427165642E+01
 A = 2.279414443025327E+08 AD= 2.492660798965614E+08 PR= 5.935522079418787E+07
2452910.500000000 = A.D. 2003-Sep-28 00:00:00.0000 TDB 
 EC= 9.355311574625087E-02 QR= 2.066168145838710E+08 IN= 1.849334250766248E+00
 OM= 4.954136840778785E+01 W = 2.865177743237708E+02 Tp=  2452881.966323777102
 N = 6.065178233332598E-06 MA= 1.495254228009045E+01 TA= 1.806729529343076E+01
 A = 2.279414471747812E+08 AD= 2.492660797656914E+08 PR= 5.935522191607433E+07
2452911.500000000 = A.D. 2003-Sep-29 00:00:00.0000 TDB 
 EC= 9.355309885949670E-02 QR= 2.066168201841736E+08 IN= 1.849334725423000E+00
 OM= 4.954134732711614E+01 W = 2.865178511808870E+02 Tp=  2452881.966411015484
 N = 6.065178156227530E-06 MA= 1.547652776683223E+01 TA= 1.869669279386411E+01
 A = 2.279414491066223E+08 AD= 2.492660780290710E+08 PR= 5.935522267064217E+07
2452912.500000000 = A.D. 2003-Sep-30 00:00:00.0000 TDB 
 EC= 9.355308115187341E-02 QR= 2.066168254681070E+08 IN= 1.849335170313722E+00
 OM= 4.954132803261961E+01 W = 2.865179211292849E+02 Tp=  2452881.966490174178
 N = 6.065178101291700E-06 MA= 1.600051753294403E+01 TA= 1.932571465695606E+01
 A = 2.279414504830208E+08 AD= 2.492660754979346E+08 PR= 5.935522320825680E+07
2452913.500000000 = A.D. 2003-Oct-01 00:00:00.0000 TDB 
 EC= 9.355306529523469E-02 QR= 2.066168304223462E+08 IN= 1.849335580910443E+00
 OM= 4.954131063345652E+01 W = 2.865179845142670E+02 Tp=  2452881.966562009417
 N = 6.065178042295150E-06 MA= 1.652451111628407E+01 TA= 1.995434846136905E+01
 A = 2.279414519611592E+08 AD= 2.492660734999722E+08 PR= 5.935522378561056E+07
2452914.500000000 = A.D. 2003-Oct-02 00:00:00.0000 TDB 
 EC= 9.355305308776209E-02 QR= 2.066168350753471E+08 IN= 1.849335961393534E+00
 OM= 4.954129486716427E+01 W = 2.865180423621957E+02 Tp=  2452881.966627753805
 N = 6.065177959937042E-06 MA= 1.704850781561827E+01 TA= 2.058258156528044E+01
 A = 2.279414540246135E+08 AD= 2.492660729738799E+08 PR= 5.935522459158591E+07
2452915.500000000 = A.D. 2003-Oct-03 00:00:00.0000 TDB 
 EC= 9.355304440554213E-02 QR= 2.066168394859168E+08 IN= 1.849336324471368E+00
 OM= 4.954128014772392E+01 W = 2.865180960564103E+02 Tp=  2452881.966688662767
 N = 6.065177852871670E-06 MA= 1.757250696303233E+01 TA= 2.121040138482420E+01
 A = 2.279414567071000E+08 AD= 2.492660739282833E+08 PR= 5.935522563935225E+07
2452916.500000000 = A.D. 2003-Oct-04 00:00:00.0000 TDB 
 EC= 9.355303804790389E-02 QR= 2.066168437087723E+08 IN= 1.849336682552115E+00
 OM= 4.954126594881998E+01 W = 2.865181466877119E+02 Tp=  2452881.966745606624
 N = 6.065177730740529E-06 MA= 1.809650812471156E+01 TA= 2.183779566284436E+01
 A = 2.279414597670543E+08 AD= 2.492660758253364E+08 PR= 5.935522683455572E+07
2452917.500000000 = A.D. 2003-Oct-05 00:00:00.0000 TDB 
 EC= 9.355303298782792E-02 QR= 2.066168477619869E+08 IN= 1.849337038769197E+00
 OM= 4.954125214332576E+01 W = 2.865181945787704E+02 Tp=  2452881.966798877809
 N = 6.065177603055752E-06 MA= 1.862051117280719E+01 TA= 2.246475260739393E+01
 A = 2.279414629661532E+08 AD= 2.492660781703195E+08 PR= 5.935522808410840E+07
2452918.500000000 = A.D. 2003-Oct-06 00:00:00.0000 TDB 
 EC= 9.355302867764631E-02 QR= 2.066168516163728E+08 IN= 1.849337385026399E+00
 OM= 4.954123903398887E+01 W = 2.865182392540717E+02 Tp=  2452881.966848198790
 N = 6.065177476599333E-06 MA= 1.914451627287314E+01 TA= 2.309126089331424E+01
 A = 2.279414661344762E+08 AD= 2.492660806525795E+08 PR= 5.935522932164013E+07
